STARLINK-35827          
1 66365U 25254T   25323.89115764  .00485050  00000+0  24664-2 0  9995
2 66365  53.1567  28.3028 0001313  66.6481 293.4679 15.79583623  2086
STARLINK-35845          
1 66366U 25254U   25323.57396250 -.01228591  00000+0 -74917-2 0  9996
2 66366  53.1568  29.8794 0001921   9.2335 350.8722 15.79461414  2035
STARLINK-35846          
1 66367U 25254V   25323.51109171 -.00626057  00000+0 -36111-2 0  9997
2 66367  53.1568  30.1984 0001672  85.5683 274.5530 15.79589514  2028
STARLINK-34861          
1 66368U 25254W   25323.89004591  .00405241  00000+0  21164-2 0  9999
2 66368  53.1560  28.2943 0001581  39.3825 320.7312 15.79207802  2083
STARLINK-35795          
1 66369U 25254X   25323.19355046 -.00726023  00000+0 -35438-2 0  9992
2 66369  53.1564  31.7726 0007222 232.7086 127.3280 15.83335616  1974
STARLINK-35824          
1 66370U 25254Y   25323.00002315  .11656309  00000+0  66395-1 0  9996
2 66370  53.1570  32.7773 0004522 337.1244 343.6414 15.73009276  3076
STARLINK-35804          
1 66371U 25254Z   25323.25586219 -.00118875  00000+0 -63256-3 0  9990
2 66371  53.1567  31.4498 0003128 341.8781  18.2130 15.79969074  1987
STARLINK-35821          
1 66372U 25254AA  25323.88924231  .00378281  00000+0  19977-2 0  9997
2 66372  53.1569  28.2891 0001947  40.2070 319.9096 15.79034751  2088
STARLINK-35809          
1 66373U 25254AB  25323.00002315  .21226236  00000+0  19801+0 0  9990
2 66373  53.1580  32.7809 0015063 282.2680  31.6118 15.66427650  3107
STARLINK-35831          
1 66374U 25254AC  25323.57152490 -.00659624  00000+0 -39387-2 0  9997
2 66374  53.1567  29.8616 0001200  63.4766 296.6379 15.78921441  2031
STARLINK-35826          
1 66375U 25254AD  25323.50783642 -.00679901  00000+0 -40318-2 0  9996
2 66375  53.1566  30.1750 0001815  56.5923 303.5272 15.79120494  2024
SHIYAN-32 01            
1 66376U 25255A   25323.94194469  .00022037  00000+0  52159-3 0  9996
2 66376  52.9970 286.3461 0013096 330.2118  29.8138 15.41659377  1830
